[{"spaceTrack":{"CCSDS_OMM_VERS":"2.0","COMMENT":"GENERATED VIA SPACE-TRACK.ORG API","CREATION_DATE":"2021-07-02T17:51:43","ORIGINATOR":"18 SPCS","OBJECT_NAME":"STARLINK-2424","OBJECT_ID":"2021-018AZ","CENTER_NAME":"EARTH","REF_FRAME":"TEME","TIME_SYSTEM":"UTC","MEAN_ELEMENT_THEORY":"SGP4","EPOCH":"2021-07-02T13:51:10.080000","MEAN_MOTION":15.06399763,"ECCENTRICITY":0.0002126,"INCLINATION":53.0564,"RA_OF_ASC_NODE":13.0888,"ARG_OF_PERICENTER":105.5433,"MEAN_ANOMALY":254.5791,"EPHEMERIS_TYPE":0,"CLASSIFICATION_TYPE":"U","NORAD_CAT_ID":47834,"ELEMENT_SET_NO":999,"REV_AT_EPOCH":1874,"BSTAR":0.000041716,"MEAN_MOTION_DOT":0.0000034,"MEAN_MOTION_DDOT":0,"SEMIMAJOR_AXIS":6925.349,"PERIOD":95.592,"APOAPSIS":548.687,"PERIAPSIS":545.742,"OBJECT_TYPE":"PAYLOAD","RCS_SIZE":"LARGE","COUNTRY_CODE":"US","LAUNCH_DATE":"2021-03-11","SITE":"AFETR","DECAY_DATE":null,"DECAYED":0,"FILE":3068555,"GP_ID":180167909,"TLE_LINE0":"0 STARLINK-2424","TLE_LINE1":"1 47834U 21018AZ  21183.57720000  .00000340  00000-0  41716-4 0  9994","TLE_LINE2":"2 47834  53.0564  13.0888 0002126 105.5433 254.5791 15.06399763 18743"},"version":"v1.0","launch":"600f9a718f798e2a4d5f979d","longitude":-71.60042416479463,"latitude":4.0910471967398445,"height_km":547.1040949875614,"velocity_kms":7.5902829218352075,"id":"6053aba57554c9000609a669"},{"spaceTrack":{"CCSDS_OMM_VERS":"2.0","COMMENT":"GENERATED VIA SPACE-TRACK.ORG API","CREATION_DATE":"2021-07-02T17:51:43","ORIGINATOR":"18 SPCS","OBJECT_NAME":"STARLINK-2257","OBJECT_ID":"2021-018A","CENTER_NAME":"EARTH","REF_FRAME":"TEME","TIME_SYSTEM":"UTC","MEAN_ELEMENT_THEORY":"SGP4","EPOCH":"2021-07-02T13:08:42.677088","MEAN_MOTION":15.06397688,"ECCENTRICITY":0.0002113,"INCLINATION":53.0571,"RA_OF_ASC_NODE":13.2241,"ARG_OF_PERICENTER":111.0702,"MEAN_ANOMALY":249.0513,"EPHEMERIS_TYPE":0,"CLASSIFICATION_TYPE":"U","NORAD_CAT_ID":47787,"ELEMENT_SET_NO":999,"REV_AT_EPOCH":1868,"BSTAR":0.000086471,"MEAN_MOTION_DOT":0.00001006,"MEAN_MOTION_DDOT":0,"SEMIMAJOR_AXIS":6925.356,"PERIOD":95.592,"APOAPSIS":548.684,"PERIAPSIS":545.757,"OBJECT_TYPE":"PAYLOAD","RCS_SIZE":"LARGE","COUNTRY_CODE":"US","LAUNCH_DATE":"2021-03-11","SITE":"AFETR","DECAY_DATE":null,"DECAYED":0,"FILE":3068555,"GP_ID":180168155,"TLE_LINE0":"0 STARLINK-2257","TLE_LINE1":"1 47787U 21018A   21183.54771617  .00001006  00000-0  86471-4 0  9995","TLE_LINE2":"2 47787  53.0571  13.2241 0002113 111.0702 249.0513 15.06397688 18688"},"version":"v1.0","launch":"600f9a718f798e2a4d5f979d","longitude":95.67790487956444,"latitude":-19.981747138652768,"height_km":553.8176375489375,"velocity_kms":7.584373648693614,"id":"6053aba67554c9000609a66a"},{"spaceTrack":{"CCSDS_OMM_VERS":"2.0","COMMENT":"GENERATED VIA SPACE-TRACK.ORG API","CREATION_DATE":"2021-07-02T17:51:43","ORIGINATOR":"18 SPCS","OBJECT_NAME":"STARLINK-2314","OBJECT_ID":"2021-018B","CENTER_NAME":"EARTH","REF_FRAME":"TEME","TIME_SYSTEM":"UTC","MEAN_ELEMENT_THEORY":"SGP4","EPOCH":"2021-07-02T14:00:01.999872","MEAN_MOTION":15.27736457,"ECCENTRICITY":0.0001338,"INCLINATION":53.0571,"RA_OF_ASC_NODE":2.4997,"ARG_OF_PERICENTER":81.3062,"MEAN_ANOMALY":81.8584,"EPHEMERIS_TYPE":0,"CLASSIFICATION_TYPE":"U","NORAD_CAT_ID":47788,"ELEMENT_SET_NO":999,"REV_AT_EPOCH":362,"BSTAR":-0.000375,"MEAN_MOTION_DOT":-0.00010633,"MEAN_MOTION_DDOT":0,"SEMIMAJOR_AXIS":6860.718,"PERIOD":94.257,"APOAPSIS":483.501,"PERIAPSIS":481.665,"OBJECT_TYPE":"PAYLOAD","RCS_SIZE":"LARGE","COUNTRY_CODE":"US","LAUNCH_DATE":"2021-03-11","SITE":"AFETR","DECAY_DATE":null,"DECAYED":0,"FILE":3068555,"GP_ID":180168905,"TLE_LINE0":"0 STARLINK-2314","TLE_LINE1":"1 47788U 21018B   21183.58335648 -.00010633  00000-0 -37500-3 0  9996","TLE_LINE2":"2 47788  53.0571   2.4997 0001338  81.3062  81.8584 15.27736457  3625"},"version":"v1.0","launch":"600f9a718f798e2a4d5f979d","longitude":83.11334771799159,"latitude":-22.152480493712876,"height_km":489.17464836380987,"velocity_kms":7.620368401117778,"id":"6053aba57554c9000609a668"},{"spaceTrack":{"CCSDS_OMM_VERS":"2.0","COMMENT":"GENERATED VIA SPACE-TRACK.ORG API","CREATION_DATE":"2021-07-02T17:51:43","ORIGINATOR":"18 SPCS","OBJECT_NAME":"STARLINK-2389","OBJECT_ID":"2021-018X","CENTER_NAME":"EARTH","REF_FRAME":"TEME","TIME_SYSTEM":"UTC","MEAN_ELEMENT_THEORY":"SGP4","EPOCH":"2021-07-02T13:10:40.824768","MEAN_MOTION":15.06386283,"ECCENTRICITY":0.0001739,"INCLINATION":53.0562,"RA_OF_ASC_NODE":8.2161,"ARG_OF_PERICENTER":107.2525,"MEAN_ANOMALY":252.8654,"EPHEMERIS_TYPE":0,"CLASSIFICATION_TYPE":"U","NORAD_CAT_ID":47808,"ELEMENT_SET_NO":999,"REV_AT_EPOCH":1881,"BSTAR":-0.000032212,"MEAN_MOTION_DOT":-0.00000761,"MEAN_MOTION_DDOT":0,"SEMIMAJOR_AXIS":6925.391,"PERIOD":95.593,"APOAPSIS":548.46,"PERIAPSIS":546.051,"OBJECT_TYPE":"PAYLOAD","RCS_SIZE":"LARGE","COUNTRY_CODE":"US","LAUNCH_DATE":"2021-03-11","SITE":"AFETR","DECAY_DATE":null,"DECAYED":0,"FILE":3068555,"GP_ID":180168408,"TLE_LINE0":"0 STARLINK-2389","TLE_LINE1":"1 47808U 21018X   21183.54908362 -.00000761  00000-0 -32212-4 0  9991","TLE_LINE2":"2 47808  53.0562   8.2161 0001739 107.2525 252.8654 15.06386283 18812"},"version":"v1.0","launch":"600f9a718f798e2a4d5f979d","longitude":85.4250449939254,"latitude":-25.63238606454707,"height_km":555.6668548159614,"velocity_kms":7.583279870196865,"id":"6053aba67554c9000609a66d"},{"spaceTrack":{"CCSDS_OMM_VERS":"2.0","COMMENT":"GENERATED VIA SPACE-TRACK.ORG API","CREATION_DATE":"2021-07-02T17:51:43","ORIGINATOR":"18 SPCS","OBJECT_NAME":"STARLINK-2334","OBJECT_ID":"2021-018F","CENTER_NAME":"EARTH","REF_FRAME":"TEME","TIME_SYSTEM":"UTC","MEAN_ELEMENT_THEORY":"SGP4","EPOCH":"2021-07-02T14:00:01.999872","MEAN_MOTION":15.06410982,"ECCENTRICITY":0.0001298,"INCLINATION":53.0524,"RA_OF_ASC_NODE":353.0617,"ARG_OF_PERICENTER":103.6503,"MEAN_ANOMALY":79.8633,"EPHEMERIS_TYPE":0,"CLASSIFICATION_TYPE":"U","NORAD_CAT_ID":47792,"ELEMENT_SET_NO":999,"REV_AT_EPOCH":364,"BSTAR":-0.0024,"MEAN_MOTION_DOT":-0.00035861,"MEAN_MOTION_DDOT":0,"SEMIMAJOR_AXIS":6925.315,"PERIOD":95.591,"APOAPSIS":548.079,"PERIAPSIS":546.281,"OBJECT_TYPE":"PAYLOAD","RCS_SIZE":"LARGE","COUNTRY_CODE":"US","LAUNCH_DATE":"2021-03-11","SITE":"AFETR","DECAY_DATE":null,"DECAYED":0,"FILE":3068555,"GP_ID":180168406,"TLE_LINE0":"0 STARLINK-2334","TLE_LINE1":"1 47792U 21018F   21183.58335648 -.00035861  00000-0 -24000-2 0  9991","TLE_LINE2":"2 47792  53.0524 353.0617 0001298 103.6503  79.8633 15.06410982  3648"},"version":"v1.0","launch":"600f9a718f798e2a4d5f979d","longitude":68.384191442359,"latitude":-27.66052978463923,"height_km":556.1698604411895,"velocity_kms":7.583096973009856,"id":"6053aba67554c9000609a66f"},{"spaceTrack":{"CCSDS_OMM_VERS":"2.0","COMMENT":"GENERATED VIA SPACE-TRACK.ORG API","CREATION_DATE":"2021-07-02T17:51:43","ORIGINATOR":"18 SPCS","OBJECT_NAME":"STARLINK-2423","OBJECT_ID":"2021-018AY","CENTER_NAME":"EARTH","REF_FRAME":"TEME","TIME_SYSTEM":"UTC","MEAN_ELEMENT_THEORY":"SGP4","EPOCH":"2021-07-02T07:13:05.238048","MEAN_MOTION":15.06406904,"ECCENTRICITY":0.0001777,"INCLINATION":53.0565,"RA_OF_ASC_NODE":14.3303,"ARG_OF_PERICENTER":108.9154,"MEAN_ANOMALY":251.2028,"EPHEMERIS_TYPE":0,"CLASSIFICATION_TYPE":"U","NORAD_CAT_ID":47833,"ELEMENT_SET_NO":999,"REV_AT_EPOCH":1870,"BSTAR":0.00014074,"MEAN_MOTION_DOT":0.00001816,"MEAN_MOTION_DDOT":0,"SEMIMAJOR_AXIS":6925.327,"PERIOD":95.592,"APOAPSIS":548.423,"PERIAPSIS":545.962,"OBJECT_TYPE":"PAYLOAD","RCS_SIZE":"LARGE","COUNTRY_CODE":"US","LAUNCH_DATE":"2021-03-11","SITE":"AFETR","DECAY_DATE":null,"DECAYED":0,"FILE":3068555,"GP_ID":180167659,"TLE_LINE0":"0 STARLINK-2423","TLE_LINE1":"1 47833U 21018AY  21183.30075507  .00001816  00000-0  14074-3 0  9994","TLE_LINE2":"2 47833  53.0565  14.3303 0001777 108.9154 251.2028 15.06406904 18706"},"version":"v1.0","launch":"600f9a718f798e2a4d5f979d","longitude":-27.831618744432216,"latitude":-41.09358383224812,"height_km":561.473068615016,"velocity_kms":7.580052545053459,"id":"6053aba67554c9000609a66e"},{"spaceTrack":{"CCSDS_OMM_VERS":"2.0","COMMENT":"GENERATED VIA SPACE-TRACK.ORG API","CREATION_DATE":"2021-07-02T17:51:43","ORIGINATOR":"18 SPCS","OBJECT_NAME":"STARLINK-2410","OBJECT_ID":"2021-018AQ","CENTER_NAME":"EARTH","REF_FRAME":"TEME","TIME_SYSTEM":"UTC","MEAN_ELEMENT_THEORY":"SGP4","EPOCH":"2021-07-02T12:31:33.620160","MEAN_MOTION":15.0639202,"ECCENTRICITY":0.0002026,"INCLINATION":53.0548,"RA_OF_ASC_NODE":13.3411,"ARG_OF_PERICENTER":105.9459,"MEAN_ANOMALY":254.1753,"EPHEMERIS_TYPE":0,"CLASSIFICATION_TYPE":"U","NORAD_CAT_ID":47825,"ELEMENT_SET_NO":999,"REV_AT_EPOCH":1868,"BSTAR":-0.000037123,"MEAN_MOTION_DOT":-0.00000835,"MEAN_MOTION_DDOT":0,"SEMIMAJOR_AXIS":6925.373,"PERIOD":95.593,"APOAPSIS":548.641,"PERIAPSIS":545.835,"OBJECT_TYPE":"PAYLOAD","RCS_SIZE":"LARGE","COUNTRY_CODE":"US","LAUNCH_DATE":"2021-03-11","SITE":"AFETR","DECAY_DATE":null,"DECAYED":0,"FILE":3068555,"GP_ID":180167658,"TLE_LINE0":"0 STARLINK-2410","TLE_LINE1":"1 47825U 21018AQ  21183.52191690 -.00000835  00000-0 -37123-4 0  9994","TLE_LINE2":"2 47825  53.0548  13.3411 0002026 105.9459 254.1753 15.06392020 18687"},"version":"v1.0","launch":"600f9a718f798e2a4d5f979d","longitude":-120.79871665233152,"latitude":46.59432199864303,"height_km":550.900771564834,"velocity_kms":7.592909851240688,"id":"6053aba67554c9000609a672"}]